STARLINK-2654           
1 48454U 21040AC  26068.61511019  .00007068  00000+0  25046-3 0  9998
2 48454  53.1603 178.4674 0001338  68.4218 291.6926 15.30209025266675
NUSAT-48 (HENRIETTA LE*)
1 60498U 24149AG  26068.80506098  .00012988  00000+0  45212-3 0  9999
2 60498  97.3923 150.8264 0002754 263.3026  96.7901 15.29812597 86946
